[{"OBJECT_NAME":"STARLINK-31178","OBJECT_ID":"2024-038C","EPOCH":"2026-03-18T10:25:57.210816","MEAN_MOTION":15.2758444,"ECCENTRICITY":0.00010222,"INCLINATION":43.0053,"RA_OF_ASC_NODE":337.8027,"ARG_OF_PERICENTER":285.4126,"MEAN_ANOMALY":74.6612,"EPHEMERIS_TYPE":0,"CLASSIFICATION_TYPE":"U","NORAD_CAT_ID":59025,"ELEMENT_SET_NO":999,"REV_AT_EPOCH":11598,"BSTAR":4.7006425e-5,"MEAN_MOTION_DOT":1.032e-5,"MEAN_MOTION_DDOT":0},{"OBJECT_NAME":"STARLINK-30863","OBJECT_ID":"2024-038E","EPOCH":"2026-03-17T23:58:17.895936","MEAN_MOTION":15.2758886,"ECCENTRICITY":0.00011604,"INCLINATION":43.0033,"RA_OF_ASC_NODE":340.5322,"ARG_OF_PERICENTER":250.0009,"MEAN_ANOMALY":110.0718,"EPHEMERIS_TYPE":0,"CLASSIFICATION_TYPE":"U","NORAD_CAT_ID":59027,"ELEMENT_SET_NO":999,"REV_AT_EPOCH":11591,"BSTAR":8.2091645e-5,"MEAN_MOTION_DOT":1.998e-5,"MEAN_MOTION_DDOT":0},{"OBJECT_NAME":"STARLINK-31206","OBJECT_ID":"2024-038F","EPOCH":"2026-03-18T13:36:51.440256","MEAN_MOTION":15.27580499,"ECCENTRICITY":0.00015538,"INCLINATION":43.0004,"RA_OF_ASC_NODE":271.8814,"ARG_OF_PERICENTER":269.4612,"MEAN_ANOMALY":90.6062,"EPHEMERIS_TYPE":0,"CLASSIFICATION_TYPE":"U","NORAD_CAT_ID":59028,"ELEMENT_SET_NO":999,"REV_AT_EPOCH":11688,"BSTAR":7.3657657e-5,"MEAN_MOTION_DOT":1.765e-5,"MEAN_MOTION_DDOT":0},{"OBJECT_NAME":"STARLINK-31224","OBJECT_ID":"2024-038G","EPOCH":"2026-03-18T09:45:14.502240","MEAN_MOTION":15.27581768,"ECCENTRICITY":0.00013188,"INCLINATION":43.0036,"RA_OF_ASC_NODE":337.5883,"ARG_OF_PERICENTER":279.8604,"MEAN_ANOMALY":80.2099,"EPHEMERIS_TYPE":0,"CLASSIFICATION_TYPE":"U","NORAD_CAT_ID":59029,"ELEMENT_SET_NO":999,"REV_AT_EPOCH":11609,"BSTAR":7.6000989e-5,"MEAN_MOTION_DOT":1.83e-5,"MEAN_MOTION_DDOT":0},{"OBJECT_NAME":"STARLINK-31186","OBJECT_ID":"2024-038H","EPOCH":"2026-03-18T10:31:30.373536","MEAN_MOTION":15.27586131,"ECCENTRICITY":7.177e-5,"INCLINATION":43.005,"RA_OF_ASC_NODE":337.8283,"ARG_OF_PERICENTER":296.3195,"MEAN_ANOMALY":63.7583,"EPHEMERIS_TYPE":0,"CLASSIFICATION_TYPE":"U","NORAD_CAT_ID":59030,"ELEMENT_SET_NO":999,"REV_AT_EPOCH":11609,"BSTAR":7.174996e-6,"MEAN_MOTION_DOT":-6.4e-7,"MEAN_MOTION_DDOT":0},{"OBJECT_NAME":"STARLINK-31211","OBJECT_ID":"2024-038J","EPOCH":"2026-03-18T00:12:54.374688","MEAN_MOTION":15.27575339,"ECCENTRICITY":0.00010519,"INCLINATION":43.003,"RA_OF_ASC_NODE":339.7666,"ARG_OF_PERICENTER":284.4151,"MEAN_ANOMALY":75.6584,"EPHEMERIS_TYPE":0,"CLASSIFICATION_TYPE":"U","NORAD_CAT_ID":59031,"ELEMENT_SET_NO":999,"REV_AT_EPOCH":11592,"BSTAR":0.00010993804,"MEAN_MOTION_DOT":2.764e-5,"MEAN_MOTION_DDOT":0},{"OBJECT_NAME":"STARLINK-30862","OBJECT_ID":"2024-038K","EPOCH":"2026-03-18T09:12:12.096576","MEAN_MOTION":15.27569673,"ECCENTRICITY":0.00015019,"INCLINATION":42.999,"RA_OF_ASC_NODE":327.0763,"ARG_OF_PERICENTER":281.4264,"MEAN_ANOMALY":78.6419,"EPHEMERIS_TYPE":0,"CLASSIFICATION_TYPE":"U","NORAD_CAT_ID":59032,"ELEMENT_SET_NO":999,"REV_AT_EPOCH":11610,"BSTAR":7.6765183e-5,"MEAN_MOTION_DOT":1.85e-5,"MEAN_MOTION_DDOT":0},{"OBJECT_NAME":"STARLINK-31210","OBJECT_ID":"2024-038L","EPOCH":"2026-03-18T10:15:32.183712","MEAN_MOTION":15.27591514,"ECCENTRICITY":0.00019823,"INCLINATION":43.0039,"RA_OF_ASC_NODE":334.3029,"ARG_OF_PERICENTER":249.3107,"MEAN_ANOMALY":110.7533,"EPHEMERIS_TYPE":0,"CLASSIFICATION_TYPE":"U","NORAD_CAT_ID":59033,"ELEMENT_SET_NO":999,"REV_AT_EPOCH":11619,"BSTAR":-4.6483561e-5,"MEAN_MOTION_DOT":-1.542e-5,"MEAN_MOTION_DDOT":0},{"OBJECT_NAME":"STARLINK-31231","OBJECT_ID":"2024-038M","EPOCH":"2026-03-18T10:09:59.608512","MEAN_MOTION":15.2757343,"ECCENTRICITY":2.059e-5,"INCLINATION":42.9951,"RA_OF_ASC_NODE":334.2712,"ARG_OF_PERICENTER":342.7074,"MEAN_ANOMALY":17.377,"EPHEMERIS_TYPE":0,"CLASSIFICATION_TYPE":"U","NORAD_CAT_ID":59034,"ELEMENT_SET_NO":999,"REV_AT_EPOCH":11602,"BSTAR":4.9359561e-5,"MEAN_MOTION_DOT":1.097e-5,"MEAN_MOTION_DDOT":0},{"OBJECT_NAME":"STARLINK-31207","OBJECT_ID":"2024-038N","EPOCH":"2026-03-18T10:04:28.936704","MEAN_MOTION":15.2756741,"ECCENTRICITY":9.057e-5,"INCLINATION":43.0042,"RA_OF_ASC_NODE":334.2412,"ARG_OF_PERICENTER":271.8056,"MEAN_ANOMALY":88.2692,"EPHEMERIS_TYPE":0,"CLASSIFICATION_TYPE":"U","NORAD_CAT_ID":59035,"ELEMENT_SET_NO":999,"REV_AT_EPOCH":11619,"BSTAR":1.8109092e-5,"MEAN_MOTION_DOT":2.36e-6,"MEAN_MOTION_DDOT":0},{"OBJECT_NAME":"STARLINK-31217","OBJECT_ID":"2024-038P","EPOCH":"2026-03-18T11:12:22.814208","MEAN_MOTION":15.28377359,"ECCENTRICITY":0.00011015,"INCLINATION":43.0003,"RA_OF_ASC_NODE":239.5764,"ARG_OF_PERICENTER":257.2272,"MEAN_ANOMALY":102.8456,"EPHEMERIS_TYPE":0,"CLASSIFICATION_TYPE":"U","NORAD_CAT_ID":59036,"ELEMENT_SET_NO":999,"REV_AT_EPOCH":11728,"BSTAR":8.7325831e-5,"MEAN_MOTION_DOT":2.199e-5,"MEAN_MOTION_DDOT":0},{"OBJECT_NAME":"STARLINK-31208","OBJECT_ID":"2024-038Q","EPOCH":"2026-03-18T00:03:51.980544","MEAN_MOTION":15.27565071,"ECCENTRICITY":0.0001055,"INCLINATION":43.0046,"RA_OF_ASC_NODE":340.5419,"ARG_OF_PERICENTER":268.2857,"MEAN_ANOMALY":91.7874,"EPHEMERIS_TYPE":0,"CLASSIFICATION_TYPE":"U","NORAD_CAT_ID":59037,"ELEMENT_SET_NO":999,"REV_AT_EPOCH":11608,"BSTAR":0.00011042673,"MEAN_MOTION_DOT":2.776e-5,"MEAN_MOTION_DDOT":0},{"OBJECT_NAME":"STARLINK-31235","OBJECT_ID":"2024-038R","EPOCH":"2026-03-18T00:35:49.398720","MEAN_MOTION":15.27558796,"ECCENTRICITY":0.00015099,"INCLINATION":43.002,"RA_OF_ASC_NODE":336.4357,"ARG_OF_PERICENTER":282.2328,"MEAN_ANOMALY":77.8355,"EPHEMERIS_TYPE":0,"CLASSIFICATION_TYPE":"U","NORAD_CAT_ID":59038,"ELEMENT_SET_NO":999,"REV_AT_EPOCH":11607,"BSTAR":6.803315e-5,"MEAN_MOTION_DOT":1.609e-5,"MEAN_MOTION_DDOT":0},{"OBJECT_NAME":"STARLINK-31220","OBJECT_ID":"2024-038S","EPOCH":"2026-03-18T10:03:44.592768","MEAN_MOTION":15.27590384,"ECCENTRICITY":0.00014965,"INCLINATION":43.0003,"RA_OF_ASC_NODE":337.6798,"ARG_OF_PERICENTER":286.3934,"MEAN_ANOMALY":73.6753,"EPHEMERIS_TYPE":0,"CLASSIFICATION_TYPE":"U","NORAD_CAT_ID":59039,"ELEMENT_SET_NO":999,"REV_AT_EPOCH":11609,"BSTAR":4.2264148e-5,"MEAN_MOTION_DOT":9.01e-6,"MEAN_MOTION_DDOT":0},{"OBJECT_NAME":"STARLINK-31225","OBJECT_ID":"2024-038T","EPOCH":"2026-03-18T09:40:22.778688","MEAN_MOTION":15.27582804,"ECCENTRICITY":0.00021586,"INCLINATION":42.9977,"RA_OF_ASC_NODE":334.0736,"ARG_OF_PERICENTER":280.2423,"MEAN_ANOMALY":79.8186,"EPHEMERIS_TYPE":0,"CLASSIFICATION_TYPE":"U","NORAD_CAT_ID":59040,"ELEMENT_SET_NO":999,"REV_AT_EPOCH":11602,"BSTAR":7.8589452e-5,"MEAN_MOTION_DOT":1.901e-5,"MEAN_MOTION_DDOT":0},{"OBJECT_NAME":"STARLINK-31240","OBJECT_ID":"2024-038U","EPOCH":"2026-03-17T23:36:49.260672","MEAN_MOTION":15.27572654,"ECCENTRICITY":0.00013098,"INCLINATION":43.0046,"RA_OF_ASC_NODE":336.992,"ARG_OF_PERICENTER":272.1436,"MEAN_ANOMALY":87.9266,"EPHEMERIS_TYPE":0,"CLASSIFICATION_TYPE":"U","NORAD_CAT_ID":59041,"ELEMENT_SET_NO":999,"REV_AT_EPOCH":11606,"BSTAR":6.6286733e-5,"MEAN_MOTION_DOT":1.562e-5,"MEAN_MOTION_DDOT":0}]
