STARLINK-31178          
1 59025U 24038C   26077.43468994  .00001032  00000+0  47006-4 0  9993
2 59025  43.0053 337.8027 0001022 285.4126  74.6612 15.27584440115981
STARLINK-30863          
1 59027U 24038E   26076.99881824  .00001998  00000+0  82092-4 0  9991
2 59027  43.0033 340.5322 0001160 250.0009 110.0718 15.27588860115916
STARLINK-31206          
1 59028U 24038F   26077.56726204  .00001765  00000+0  73658-4 0  9996
2 59028  43.0004 271.8814 0001553 269.4612  90.6062 15.27580499116889
STARLINK-31224          
1 59029U 24038G   26077.40641785  .00001830  00000+0  76001-4 0  9998
2 59029  43.0036 337.5883 0001318 279.8604  80.2099 15.27581768116094
STARLINK-31186          
1 59030U 24038H   26077.43854599 -.00000064  00000+0  71750-5 0  9998
2 59030  43.0050 337.8283 0000717 296.3195  63.7583 15.27586131116093
STARLINK-31211          
1 59031U 24038J   26077.00896267  .00002764  00000+0  10994-3 0  9999
2 59031  43.0030 339.7666 0001051 284.4151  75.6584 15.27575339115922
STARLINK-30862          
1 59032U 24038K   26077.38347334  .00001850  00000+0  76765-4 0  9991
2 59032  42.9990 327.0763 0001501 281.4264  78.6419 15.27569673116101
STARLINK-31210          
1 59033U 24038L   26077.42745583 -.00001542  00000+0 -46484-4 0  9990
2 59033  43.0039 334.3029 0001982 249.3107 110.7533 15.27591514116199
STARLINK-31231          
1 59034U 24038M   26077.42360658  .00001097  00000+0  49360-4 0  9996
2 59034  42.9951 334.2712 0000205 342.7074  17.3770 15.27573430116021
STARLINK-31207          
1 59035U 24038N   26077.41977936  .00000236  00000+0  18109-4 0  9990
2 59035  43.0042 334.2412 0000905 271.8056  88.2692 15.27567410116190
STARLINK-31217          
1 59036U 24038P   26077.46693072  .00002199  00000+0  87326-4 0  9999
2 59036  43.0003 239.5764 0001101 257.2272 102.8456 15.28377359117286
STARLINK-31208          
1 59037U 24038Q   26077.00268496  .00002776  00000+0  11043-3 0  9991
2 59037  43.0046 340.5419 0001055 268.2857  91.7874 15.27565071116089
STARLINK-31235          
1 59038U 24038R   26077.02487730  .00001609  00000+0  68033-4 0  9994
2 59038  43.0020 336.4357 0001509 282.2328  77.8355 15.27558796116074
STARLINK-31220          
1 59039U 24038S   26077.41926612  .00000901  00000+0  42264-4 0  9997
2 59039  43.0003 337.6798 0001496 286.3934  73.6753 15.27590384116098
STARLINK-31225          
1 59040U 24038T   26077.40304142  .00001901  00000+0  78589-4 0  9996
2 59040  42.9977 334.0736 0002158 280.2423  79.8186 15.27582804116022
STARLINK-31240          
1 59041U 24038U   26076.98390348  .00001562  00000+0  66287-4 0  9997
2 59041  43.0046 336.9920 0001309 272.1436  87.9266 15.27572654116064
